=====================================================================
  37841 2011-058D   SRMSAT                                           
  Launched: 2011-10-12 (285)           Start Date: 2011-10-13 (286)  
   Decayed:                             Stop Date: 2011-12-08 (342)  
=====================================================================
1 37841U 11058D   11286.76608239  .00000264  00000-0  00000-0 0    35
2 37841  19.9762  57.0671 0011753 355.1301   4.9028 14.10073457   229
1 37841U 11058D   11287.75680246  .00000264  00000-0  00000-0 0    66
2 37841  19.9762  51.0901 0011753   5.9970 354.0574 14.10073457   372
1 37841U 11058D   11288.11063132  .00000264  00000-0  00000+0 0    43
2 37841  19.9762  48.9554 0011753   9.8780 350.1854 14.10073457   416
1 37841U 11058D   11288.60599169  .00000264  00000-0  00000-0 0    64
2 37841  19.9762  45.9669 0011753  15.3114 344.7644 14.10073457   497
1 37841U 11058D   11289.45518073  .00000264  00000-0  00000+0 0    51
2 37841  19.9762  40.8438 0011753  24.6259 335.4705 14.10073457   606
1 37841U 11058D   11289.66747795  .00000264  00000-0  00000-0 0    61
2 37841  19.9762  39.5630 0011753  26.9545 333.1468 14.10073457   643
1 37841U 11058D   11290.65819802  .00000264  00000-0  00000+0 0    60
2 37841  19.9762  33.5860 0011753  37.8214 322.3015 14.10073457   778
1 37841U 11058D   11291.57815185  .00000264  00000-0  00000-0 0    74
2 37841  19.9729  28.0384 0011655  48.7500 311.3998 14.10073962   905
1 37841U 11058D   11292.28580602  .00000264  00000-0  00000+0 0    86
2 37841  19.9730  23.7692 0011653  56.5145 303.6378 14.10074010  1004
1 37841U 11058D   11292.42733704  .00000264  00000-0  00000-0 0    97
2 37841  19.9730  22.9153 0011653  58.0780 302.0766 14.10074058  1038
1 37841U 11058D   11293.55958539  .00000264  00000-0  00000+0 0    96
2 37841  19.9730  16.0842 0011653  70.6290 289.5438 14.10074334  1181
1 37841U 11058D   11294.55030041  .00000264  00000-0  00000-0 0   110
2 37841  19.9730  10.1070 0011650  81.6159 278.5622 14.10074539  1339
1 37841U 11058D   11295.54101453  .00000264  00000-0  00000+0 0   104
2 37841  19.9730   4.1297 0011647  92.6316 267.5490 14.10074754  1460
1 37841U 11058D   11296.53172729  .00000264  00000-0  00000-0 0   121
2 37841  19.9730 358.1526 0011647 103.4990 256.6712 14.10074754  1619
1 37841U 11058D   11297.52244050  .00000264  00000-0  00000+0 0   116
2 37841  19.9733 352.1755 0011598 114.7720 245.4041 14.10075139  1744
1 37841U 11058D   11297.80549826  .00000264  00000-0  00000-0 0   128
2 37841  19.9683 350.4438 0011628 117.8281 242.3721 14.10075509  1794
1 37841U 11058D   11298.44237124  .00000264  00000-0  00000-0 0   146
2 37841  19.9697 346.5774 0011669 124.8768 235.2775 14.10077022  1883
1 37841U 11058D   11299.15002041  .00000264  00000-0  00000+0 0   120
2 37841  19.9697 342.3080 0011669 132.6396 227.4993 14.10077022  1976
1 37841U 11058D   11299.43308031  .00000264  00000-0  00000-0 0   131
2 37841  19.9705 340.5989 0011719 135.0122 225.1289 14.10078390  2023
1 37841U 11058D   11300.42378725  .00000264  00000-0  00000+0 0   139
2 37841  19.9725 334.6188 0011863 145.1953 214.9268 14.10079233  2158
1 37841U 11058D   11301.41449866  .00000264  00000-0  00000+0 0   145
2 37841  19.9679 328.6502 0011290 159.6124 200.4795 14.10076518  2296
1 37841U 11058D   11301.41449866  .00000264  00000-0  00000-0 0   157
2 37841  19.9679 328.6502 0011290 159.6124 200.4795 14.10076518  2308
1 37841U 11058D   11302.40520615  .00000264  00000-0  00000-0 0   159
2 37841  19.9668 322.6738 0011190 170.0774 189.9902 14.10076842  2444
1 37841U 11058D   11303.11285400  .00000264  00000-0  00000+0 0   157
2 37841  19.9667 318.4043 0011195 177.7002 182.3493 14.10077074  2538
1 37841U 11058D   11303.39591272  .00000264  00000-0  00000-0 0   166
2 37841  19.9662 316.6968 0011169 181.0338 179.0120 14.10077368  2581
1 37841U 11058D   11304.17432463  .00000264  00000-0  00000+0 0   168
2 37841  19.9665 311.9993 0011202 189.1871 170.8389 14.10077689  2682
1 37841U 11058D   11304.38661798  .00000264  00000-0  00000-0 0   178
2 37841  19.9668 310.7178 0011209 190.9634 169.0570 14.10077943  2721
1 37841U 11058D   11305.30655799  .00000264  00000-0  00000+0 0   174
2 37841  19.9678 305.1654 0011341 201.2667 158.7315 14.10078449  2845
1 37841U 11058D   11306.29726232  .00000264  00000-0  00000-0 0   197
2 37841  19.9693 299.1858 0011621 210.8240 149.1517 14.10079147  2994
1 37841U 11058D   11307.07567469  .00000264  00000-0  00000+0 0   187
2 37841  19.9705 294.4878 0011791 218.5972 141.3670 14.10079496  3096
1 37841U 11058D   11307.21720275  .00000264  00000-0  00000-0 0   191
2 37841  19.9705 293.6338 0011829 220.2036 139.7527 14.10079586  3127
1 37841U 11058D   11308.13714502  .00000264  00000-0  00000+0 0   198
2 37841  19.9719 288.0819 0012034 229.3333 130.6119 14.10079953  3241
1 37841U 11058D   11308.27867286  .00000264  00000-0  00000-0 0   204
2 37841  19.9722 287.2276 0012053 230.5810 129.3545 14.10080032  3279
1 37841U 11058D   11309.26937878  .00000264  00000-0  00000-0 0   209
2 37841  19.9743 281.2481 0012455 239.4872 120.4441 14.10080769  3405
1 37841U 11058D   11310.18931626  .00000264  00000-0  00000-0 0   229
2 37841  19.9735 275.6815 0012340 249.5593 110.3517 14.10081013  3549
1 37841U 11058D   11311.25078781  .00000264  00000-0  00000-0 0   222
2 37841  19.9738 269.2756 0012437 260.4725  99.4307 14.10081446  3691
1 37841U 11058D   11312.17073189  .00000264  00000-0  00000+0 0   220
2 37841  19.9736 263.7218 0012596 270.1866  89.7268 14.10081864  3817
1 37841U 11058D   11312.24149346  .00000264  00000-0  00000-0 0   239
2 37841  19.9739 263.2938 0012554 270.4785  89.4209 14.10081995  3830
1 37841U 11058D   11313.23220207  .00000264  00000-0  00000+0 0   234
2 37841  19.9738 257.3108 0012370 280.8405  79.0661 14.10082379  3960
1 37841U 11058D   11313.86908652  .00000264  00000-0  00000-0 0   242
2 37841  19.9730 253.4649 0012369 287.9565  71.9547 14.10082494  4066
1 37841U 11058D   11314.85979429  .00000264  00000-0  00000+0 0   241
2 37841  19.9719 247.4841 0012391 298.8583  61.0597 14.10082857  4198
1 37841U 11058D   11315.85050404  .00000264  00000-0  00000-0 0   279
2 37841  19.9717 241.5013 0012201 309.6778  50.2574 14.10083251  4340
1 37841U 11058D   11316.06279904  .00000264  00000-0  00000+0 0   258
2 37841  19.9716 240.2188 0012052 311.6706  48.2770 14.10083586  4364
1 37841U 11058D   11316.84121334  .00000264  00000-0  00000-0 0   270
2 37841  19.9716 235.5176 0011951 320.6040  39.3533 14.10083800  4486
1 37841U 11058D   11317.12427136  .00000264  00000-0  00000+0 0   269
2 37841  19.9714 233.8083 0011749 322.5952  37.3674 14.10084221  4516
1 37841U 11058D   11317.83192218  .00000264  00000-0  00000-0 0   279
2 37841  19.9709 229.5344 0011755 331.0697  28.9102 14.10084406  4629
1 37841U 11058D   11318.89339640  .00000264  00000-0  00000-0 0   290
2 37841  19.9714 223.1270 0011582 342.1518  17.8507 14.10084969  4772
1 37841U 11058D   11319.10569134  .00000264  00000-0  00000+0 0   275
2 37841  19.9717 221.8454 0011404 344.3083  15.7038 14.10085254  4794
1 37841U 11058D   11319.81334147  .00000264  00000-0  00000-0 0   289
2 37841  19.9716 217.5775 0011367 351.9685   8.0560 14.10085446  4902
1 37841U 11058D   11320.73328669  .00000264  00000-0  00000+0 0   283
2 37841  19.9717 212.0265 0011231   1.5453 358.5023 14.10085737  5022
1 37841U 11058D   11321.01634648  .00000264  00000-0  00000-0 0   294
2 37841  19.9715 210.3181 0011107   4.1560 355.9033 14.10085981  5076
1 37841U 11058D   11322.00705608  .00000264  00000-0  00000+0 0   298
2 37841  19.9711 204.3226 0011337  17.5201 342.5735 14.10086334  5209
1 37841U 11058D   11322.78546914  .00000264  00000-0  00000-0 0   309
2 37841  19.9715 199.6263 0011208  25.7773 334.3289 14.10086704  5329
1 37841U 11058D   11323.70540986  .00000264  00000-0  00000+0 0   304
2 37841  19.9723 194.0724 0011005  36.0969 324.0246 14.10087312  5444
1 37841U 11058D   11323.91770344  .00000264  00000-0  00000-0 0   312
2 37841  19.9720 192.7926 0010905  37.9851 322.1401 14.10087508  5481
1 37841U 11058D   11324.90840833  .00000264  00000-0  00000-0 0   346
2 37841  19.9728 186.8105 0010907  51.2468 308.8966 14.10088380  5629
1 37841U 11058D   11324.97917210  .00000264  00000-0  00000+0 0   313
2 37841  19.9731 186.3820 0010934  52.4576 307.6840 14.10088455  5626
1 37841U 11058D   11325.89911373  .00000264  00000-0  00000-0 0   332
2 37841  19.9736 180.8256 0011000  63.4899 296.6704 14.10088791  5762
1 37841U 11058D   11326.67752475  .00000264  00000-0  00000+0 0   323
2 37841  19.9731 176.1273 0011194  72.8761 287.2925 14.10089182  5867
1 37841U 11058D   11326.88981778  .00000264  00000-0  00000-0 0   338
2 37841  19.9733 174.8458 0011158  75.8870 284.2842 14.10089413  5900
1 37841U 11058D   11327.80975646  .00000264  00000-0  00000+0 0   337
2 37841  19.9728 169.2965 0011139  86.3993 273.7725 14.10089676  6025
1 37841U 11058D   11328.80045404  .00000264  00000-0  00000-0 0   362
2 37841  19.9725 163.3028 0011217  98.7625 261.4082 14.10090354  6174
1 37841U 11058D   11329.57886269  .00000264  00000-0  00000+0 0   346
2 37841  19.9709 158.5985 0011355 106.8567 253.3167 14.10090573  6271
1 37841U 11058D   11329.86191876  .00000264  00000-0  00000-0 0   353
2 37841  19.9711 156.8892 0011494 110.4027 249.7652 14.10090766  6326
1 37841U 11058D   11330.64032624  .00000264  00000-0  00000+0 0   355
2 37841  19.9701 152.1908 0011557 118.9265 241.2357 14.10091002  6423
1 37841U 11058D   11330.85261814  .00000264  00000-0  00000-0 0   365
2 37841  19.9700 150.9069 0011689 121.1913 238.9686 14.10091152  6466
1 37841U 11058D   11331.84331622  .00000264  00000-0  00000+0 0   369
2 37841  19.9699 144.9253 0011880 132.0099 228.1376 14.10091648  6591
1 37841U 11058D   11332.76324928  .00000264  00000-0  00000-0 0   385
2 37841  19.9702 139.3727 0012037 142.2506 217.8814 14.10092101  6734
1 37841U 11058D   11333.54165364  .00000264  00000-0  00000+0 0   377
2 37841  19.9701 134.6738 0012057 150.2169 209.8967 14.10092339  6833
1 37841U 11058D   11334.74464006  .00000264  00000-0  00000+0 0   386
2 37841  19.9697 127.4083 0012252 162.7733 197.3112 14.10092754  7006
1 37841U 11058D   11335.66457145  .00000264  00000-0  00000-0 0   408
2 37841  19.9695 121.8573 0012254 173.0952 186.9651 14.10093020  7140
1 37841U 11058D   11336.44297535  .00000264  00000-0  00000+0 0   397
2 37841  19.9691 117.1585 0012206 181.3829 178.6585 14.10093181  7242
1 37841U 11058D   11337.43367102  .00000264  00000-0  00000-0 0   408
2 37841  19.9689 111.1798 0012236 192.4548 167.5624 14.10093383  7394
1 37841U 11058D   11338.35360217  .00000264  00000-0  00000+0 0   409
2 37841  19.9687 105.6287 0012547 204.4144 155.5849 14.10093640  7510
1 37841U 11058D   11338.49512664  .00000264  00000-0  00000-0 0   411
2 37841  19.9688 104.7738 0012581 206.3508 153.6307 14.10093715  7549
1 37841U 11058D   11339.48582239  .00000264  00000-0  00000+0 0   415
2 37841  19.9680  98.7949 0012603 217.5509 142.4068 14.10093771  7673
1 37841U 11058D   11340.61804689  .00000264  00000-0  00000+0 0   429
2 37841  19.9692  91.9525 0012589 227.9916 131.9643 14.10094455  7831
1 37841U 11058D   11340.68880651  .00000264  00000-0  00000-0 0   431
2 37841  19.9709  91.5224 0012556 227.0174 132.9259 14.10094970  7851
1 37841U 11058D   11341.46720886  .00000264  00000-0  00000-0 0   453
2 37841  19.9709  86.8232 0012477 235.1714 124.7517 14.10095160  7969
1 37841U 11058D   11342.31637830  .00000264  00000-0  00000+0 0   431
2 37841  19.9721  81.6972 0012510 243.4623 116.4621 14.10095610  8073
1 37841U 11058D   11342.59943242  .00000264  00000-0  00000-0 0   440
2 37841  19.9728  79.9852 0012385 245.0747 114.8500 14.10096073  8120
<En